IRIDIUM 154             
1 43574U 18061F   26187.13886789  .00000220  00000+0  71382-4 0  9991
2 43574  86.3945  48.8808 0002268  89.1684 270.9772 14.34219375416127
IRIDIUM 163             
1 43575U 18061G   26187.11984038  .00000225  00000+0  73426-4 0  9992
2 43575  86.3942  48.8034 0002179  84.5350 275.6094 14.34219577416095
IRIDIUM 156             
1 43576U 18061H   26187.16423974  .00000208  00000+0  67324-4 0  9996
2 43576  86.3944  48.7920 0002029  89.9545 270.1884 14.34218417416099
IRIDIUM 164             
1 43577U 18061J   26187.14521279  .00000055  00000+0  12405-4 0  9992
2 43577  86.3944  48.8407 0002274  89.5812 270.5644 14.34218217416137
IRIDIUM 159             
1 43578U 18061K   26186.97396215  .00000086  00000+0  23489-4 0  9991
2 43578  86.3943  48.8488 0002190  84.1151 276.0294 14.34218575416072
IRIDIUM 180             
1 43922U 19002A   26186.48507908  .00000232  00000+0  75915-4 0  9993
2 43922  86.3982 345.9473 0002232  90.2793 269.8659 14.34218704391611
IRIDIUM 176             
1 43923U 19002B   26186.98610934  .00000879  00000+0  13561-3 0  9998
2 43923  86.6103 345.6787 0002355  88.4230 271.7257 14.72240781402011
IRIDIUM 168             
1 43924U 19002C   26186.96711385  .00000031  00000+0  41787-5 0  9992
2 43924  86.3985 345.8236 0002229  90.7082 269.4369 14.34217553391664
IRIDIUM 173             
1 43925U 19002D   26186.95443093  .00000274  00000+0  90679-4 0  9992
2 43925  86.3982 345.7170 0002139  90.4744 269.6697 14.34217668391641
IRIDIUM 169             
1 43926U 19002E   26187.03228803  .00000299  00000+0  91329-4 0  9993
2 43926  86.4219  17.3124 0001680  94.0386 266.1004 14.38612830392930
IRIDIUM 172             
1 43927U 19002F   26186.80855075  .00000170  00000+0  53647-4 0  9994
2 43927  86.3982 345.7862 0002216  89.8339 270.3111 14.34218938391639
IRIDIUM 175             
1 43928U 19002G   26187.26805798  .00000356  00000+0  99143-4 0  9990
2 43928  86.4515 282.5454 0004701 133.3674 226.7920 14.43623976401734
IRIDIUM 171             
1 43929U 19002H   26186.92906065  .00000097  00000+0  27422-4 0  9995
2 43929  86.3991 346.0440 0002179  94.7197 265.4247 14.34218447391643
IRIDIUM 170             
1 43930U 19002J   26186.92431468  .00000885  00000+0  13646-3 0  9994
2 43930  86.6102 345.7067 0002374  84.8060 275.3428 14.72241215402015
IRIDIUM 167             
1 43931U 19002K   26186.92271773  .00000074  00000+0  19459-4 0  9995
2 43931  86.3983 345.7608 0002112  98.8417 261.3018 14.34218297391640
IRIDIUM 181             
1 56726U 23068S   26187.10270759  .00000290  00000+0  80313-4 0  9999
2 56726  86.4482  48.8815 0002487  85.8603 274.2882 14.43309080165169
IRIDIUM 177             
1 56727U 23068T   26186.84671992  .00001250  00000+0  16183-3 0  9994
2 56727  86.1979 319.9308 0002129  90.9882 269.1583 14.80018581169121
IRIDIUM 174             
1 56728U 23068U   26186.97989279  .00000926  00000+0  14291-3 0  9996
2 56728  86.6110 345.8328 0002142  81.1201 279.0258 14.72249635168783
IRIDIUM 178             
1 56729U 23068V   26187.03851919  .00001044  00000+0  13465-3 0  9998
2 56729  86.6531  17.4805 0002318  86.5256 273.6230 14.80023135169153
IRIDIUM 179             
1 56730U 23068W   26187.10081570  .00001076  00000+0  13890-3 0  9993
2 56730  86.6766  26.4904 0002264  89.8632 270.2849 14.80027181169164
