OBJECT_NAME,OBJECT_ID,EPOCH,MEAN_MOTION,ECCENTRICITY,INCLINATION,RA_OF_ASC_NODE,ARG_OF_PERICENTER,MEAN_ANOMALY,EPHEMERIS_TYPE,CLASSIFICATION_TYPE,NORAD_CAT_ID,ELEMENT_SET_NO,REV_AT_EPOCH,BSTAR,MEAN_MOTION_DOT,MEAN_MOTION_DDOT
IRIDIUM 154,2018-061F,2026-07-06T03:19:58.185696,14.34219375,.00022685,86.3945,48.8808,89.1684,270.9772,0,U,43574,999,41612,.71381877E-4,.22E-5,0
IRIDIUM 163,2018-061G,2026-07-06T02:52:34.208832,14.34219577,.00021792,86.3942,48.8034,84.5350,275.6094,0,U,43575,999,41609,.7342578E-4,.225E-5,0
IRIDIUM 156,2018-061H,2026-07-06T03:56:30.313536,14.34218417,.00020297,86.3944,48.7920,89.9545,270.1884,0,U,43576,999,41609,.67323977E-4,.208E-5,0
IRIDIUM 164,2018-061J,2026-07-06T03:29:06.385056,14.34218217,.00022743,86.3944,48.8407,89.5812,270.5644,0,U,43577,999,41613,.12404811E-4,.55E-6,0
IRIDIUM 159,2018-061K,2026-07-05T23:22:30.329760,14.34218575,.00021907,86.3943,48.8488,84.1151,276.0294,0,U,43578,999,41607,.23489199E-4,.86E-6,0
IRIDIUM 180,2019-002A,2026-07-05T11:38:30.832512,14.34218704,.00022328,86.3982,345.9473,90.2793,269.8659,0,U,43922,999,39161,.75914747E-4,.232E-5,0
IRIDIUM 176,2019-002B,2026-07-05T23:39:59.846976,14.72240781,.00023551,86.6103,345.6787,88.4230,271.7257,0,U,43923,999,40201,.13560886E-3,.879E-5,0
IRIDIUM 168,2019-002C,2026-07-05T23:12:38.636640,14.34217553,.00022293,86.3985,345.8236,90.7082,269.4369,0,U,43924,999,39166,.4178729E-5,.31E-6,0
IRIDIUM 173,2019-002D,2026-07-05T22:54:22.832352,14.34217668,.00021395,86.3982,345.7170,90.4744,269.6697,0,U,43925,999,39164,.90679461E-4,.274E-5,0
IRIDIUM 169,2019-002E,2026-07-06T00:46:29.685792,14.38612830,.00016803,86.4219,17.3124,94.0386,266.1004,0,U,43926,999,39293,.91329424E-4,.299E-5,0
IRIDIUM 172,2019-002F,2026-07-05T19:24:18.784800,14.34218938,.00022169,86.3982,345.7862,89.8339,270.3111,0,U,43927,999,39163,.53647233E-4,.17E-5,0
IRIDIUM 175,2019-002G,2026-07-06T06:26:00.209472,14.43623976,.00047016,86.4515,282.5454,133.3674,226.7920,0,U,43928,999,40173,.99143463E-4,.356E-5,0
IRIDIUM 171,2019-002H,2026-07-05T22:17:50.840160,14.34218447,.00021793,86.3991,346.0440,94.7197,265.4247,0,U,43929,999,39164,.27422196E-4,.97E-6,0
IRIDIUM 170,2019-002J,2026-07-05T22:11:00.788352,14.72241215,.00023748,86.6102,345.7067,84.8060,275.3428,0,U,43930,999,40201,.13646262E-3,.885E-5,0
IRIDIUM 167,2019-002K,2026-07-05T22:08:42.811872,14.34218297,.00021126,86.3983,345.7608,98.8417,261.3018,0,U,43931,999,39164,.19458668E-4,.74E-6,0
IRIDIUM 181,2023-068S,2026-07-06T02:27:53.935776,14.43309080,.00024876,86.4482,48.8815,85.8603,274.2882,0,U,56726,999,16516,.80312887E-4,.29E-5,0
IRIDIUM 177,2023-068T,2026-07-05T20:19:16.601088,14.80018581,.00021296,86.1979,319.9308,90.9882,269.1583,0,U,56727,999,16912,.1618264E-3,.125E-4,0
IRIDIUM 174,2023-068U,2026-07-05T23:31:02.737056,14.72249635,.00021425,86.6110,345.8328,81.1201,279.0258,0,U,56728,999,16878,.14291132E-3,.926E-5,0
IRIDIUM 178,2023-068V,2026-07-06T00:55:28.058016,14.80023135,.00023184,86.6531,17.4805,86.5256,273.6230,0,U,56729,999,16915,.13464561E-3,.1044E-4,0
IRIDIUM 179,2023-068W,2026-07-06T02:25:10.476480,14.80027181,.00022641,86.6766,26.4904,89.8632,270.2849,0,U,56730,999,16916,.138902E-3,.1076E-4,0
